CCSDS_OMM_VERS = 2.0
CREATION_DATE  = 
ORIGINATOR     = 

OBJECT_NAME    = STARLINK-36651
OBJECT_ID      = 2026-033V
CENTER_NAME    = EARTH
REF_FRAME      = TEME
TIME_SYSTEM    = UTC
MEAN_ELEMENT_THEORY = SGP/SGP4

EPOCH          = 2026-02-27T08:00:01.999008
MEAN_MOTION    = 15.81995885
ECCENTRICITY   = .0001607
INCLINATION    = 42.9988
RA_OF_ASC_NODE = 334.8012
ARG_OF_PERICENTER = 273.7768
MEAN_ANOMALY   = 122.6339

EPHEMERIS_TYPE = 0
CLASSIFICATION_TYPE = U
NORAD_CAT_ID   = 67840
ELEMENT_SET_NO = 999
REV_AT_EPOCH   = 300
BSTAR          = .18461E-3
MEAN_MOTION_DOT = .38475E-3
MEAN_MOTION_DDOT = 0

CCSDS_OMM_VERS = 2.0
CREATION_DATE  = 
ORIGINATOR     = 

OBJECT_NAME    = STARLINK-36656
OBJECT_ID      = 2026-033W
CENTER_NAME    = EARTH
REF_FRAME      = TEME
TIME_SYSTEM    = UTC
MEAN_ELEMENT_THEORY = SGP/SGP4

EPOCH          = 2026-02-27T08:00:01.999008
MEAN_MOTION    = 15.81972125
ECCENTRICITY   = .0001614
INCLINATION    = 42.9990
RA_OF_ASC_NODE = 334.7899
ARG_OF_PERICENTER = 287.9165
MEAN_ANOMALY   = 112.7739

EPHEMERIS_TYPE = 0
CLASSIFICATION_TYPE = U
NORAD_CAT_ID   = 67841
ELEMENT_SET_NO = 999
REV_AT_EPOCH   = 300
BSTAR          = .42251E-3
MEAN_MOTION_DOT = .89169E-3
MEAN_MOTION_DDOT = 0

CCSDS_OMM_VERS = 2.0
CREATION_DATE  = 
ORIGINATOR     = 

OBJECT_NAME    = STARLINK-36653
OBJECT_ID      = 2026-033X
CENTER_NAME    = EARTH
REF_FRAME      = TEME
TIME_SYSTEM    = UTC
MEAN_ELEMENT_THEORY = SGP/SGP4

EPOCH          = 2026-02-27T08:00:01.999008
MEAN_MOTION    = 15.82011446
ECCENTRICITY   = .0001672
INCLINATION    = 42.9987
RA_OF_ASC_NODE = 334.7799
ARG_OF_PERICENTER = 279.3800
MEAN_ANOMALY   = 125.5646

EPHEMERIS_TYPE = 0
CLASSIFICATION_TYPE = U
NORAD_CAT_ID   = 67842
ELEMENT_SET_NO = 999
REV_AT_EPOCH   = 300
BSTAR          = .14065E-3
MEAN_MOTION_DOT = .29177E-3
MEAN_MOTION_DDOT = 0

CCSDS_OMM_VERS = 2.0
CREATION_DATE  = 
ORIGINATOR     = 

OBJECT_NAME    = STARLINK-36589
OBJECT_ID      = 2026-033Y
CENTER_NAME    = EARTH
REF_FRAME      = TEME
TIME_SYSTEM    = UTC
MEAN_ELEMENT_THEORY = SGP/SGP4

EPOCH          = 2026-02-27T08:00:01.999008
MEAN_MOTION    = 15.81993657
ECCENTRICITY   = .0002052
INCLINATION    = 42.9991
RA_OF_ASC_NODE = 334.7690
ARG_OF_PERICENTER = 282.5439
MEAN_ANOMALY   = 126.6790

EPHEMERIS_TYPE = 0
CLASSIFICATION_TYPE = U
NORAD_CAT_ID   = 67843
ELEMENT_SET_NO = 999
REV_AT_EPOCH   = 300
BSTAR          = .29383E-3
MEAN_MOTION_DOT = .61716E-3
MEAN_MOTION_DDOT = 0

CCSDS_OMM_VERS = 2.0
CREATION_DATE  = 
ORIGINATOR     = 

OBJECT_NAME    = STARLINK-36598
OBJECT_ID      = 2026-033Z
CENTER_NAME    = EARTH
REF_FRAME      = TEME
TIME_SYSTEM    = UTC
MEAN_ELEMENT_THEORY = SGP/SGP4

EPOCH          = 2026-02-27T08:00:01.999008
MEAN_MOTION    = 15.82018972
ECCENTRICITY   = .0001817
INCLINATION    = 42.9990
RA_OF_ASC_NODE = 334.7583
ARG_OF_PERICENTER = 282.0694
MEAN_ANOMALY   = 131.4188

EPHEMERIS_TYPE = 0
CLASSIFICATION_TYPE = U
NORAD_CAT_ID   = 67844
ELEMENT_SET_NO = 999
REV_AT_EPOCH   = 300
BSTAR          = .46627E-4
MEAN_MOTION_DOT = .9297E-4
MEAN_MOTION_DDOT = 0

CCSDS_OMM_VERS = 2.0
CREATION_DATE  = 
ORIGINATOR     = 

OBJECT_NAME    = STARLINK-36606
OBJECT_ID      = 2026-033AA
CENTER_NAME    = EARTH
REF_FRAME      = TEME
TIME_SYSTEM    = UTC
MEAN_ELEMENT_THEORY = SGP/SGP4

EPOCH          = 2026-02-27T08:00:01.999008
MEAN_MOTION    = 15.81999337
ECCENTRICITY   = .0001594
INCLINATION    = 42.9988
RA_OF_ASC_NODE = 334.7472
ARG_OF_PERICENTER = 283.2218
MEAN_ANOMALY   = 134.5401

EPHEMERIS_TYPE = 0
CLASSIFICATION_TYPE = U
NORAD_CAT_ID   = 67845
ELEMENT_SET_NO = 999
REV_AT_EPOCH   = 300
BSTAR          = .24918E-3
MEAN_MOTION_DOT = .5221E-3
MEAN_MOTION_DDOT = 0

CCSDS_OMM_VERS = 2.0
CREATION_DATE  = 
ORIGINATOR     = 

OBJECT_NAME    = STARLINK-36658
OBJECT_ID      = 2026-033AB
CENTER_NAME    = EARTH
REF_FRAME      = TEME
TIME_SYSTEM    = UTC
MEAN_ELEMENT_THEORY = SGP/SGP4

EPOCH          = 2026-02-27T08:00:01.999008
MEAN_MOTION    = 15.82013296
ECCENTRICITY   = .0001882
INCLINATION    = 42.9989
RA_OF_ASC_NODE = 334.7368
ARG_OF_PERICENTER = 278.2596
MEAN_ANOMALY   = 143.7760

EPHEMERIS_TYPE = 0
CLASSIFICATION_TYPE = U
NORAD_CAT_ID   = 67846
ELEMENT_SET_NO = 999
REV_AT_EPOCH   = 300
BSTAR          = .11883E-3
MEAN_MOTION_DOT = .24557E-3
MEAN_MOTION_DDOT = 0

CCSDS_OMM_VERS = 2.0
CREATION_DATE  = 
ORIGINATOR     = 

OBJECT_NAME    = STARLINK-36618
OBJECT_ID      = 2026-033AC
CENTER_NAME    = EARTH
REF_FRAME      = TEME
TIME_SYSTEM    = UTC
MEAN_ELEMENT_THEORY = SGP/SGP4

EPOCH          = 2026-02-27T08:00:01.999008
MEAN_MOTION    = 16.02773038
ECCENTRICITY   = .0002365
INCLINATION    = 42.9893
RA_OF_ASC_NODE = 333.8410
ARG_OF_PERICENTER = 267.4513
MEAN_ANOMALY   = 146.0435

EPHEMERIS_TYPE = 0
CLASSIFICATION_TYPE = U
NORAD_CAT_ID   = 67847
ELEMENT_SET_NO = 999
REV_AT_EPOCH   = 300
BSTAR          = -.61417E-3
MEAN_MOTION_DOT = -.388356E-2
MEAN_MOTION_DDOT = .62913E-4

CCSDS_OMM_VERS = 2.0
CREATION_DATE  = 
ORIGINATOR     = 

OBJECT_NAME    = STARLINK-36660
OBJECT_ID      = 2026-033AD
CENTER_NAME    = EARTH
REF_FRAME      = TEME
TIME_SYSTEM    = UTC
MEAN_ELEMENT_THEORY = SGP/SGP4

EPOCH          = 2026-02-27T08:00:01.999008
MEAN_MOTION    = 15.82035938
ECCENTRICITY   = .0001597
INCLINATION    = 42.9988
RA_OF_ASC_NODE = 334.7258
ARG_OF_PERICENTER = 290.8142
MEAN_ANOMALY   = 135.4872

EPHEMERIS_TYPE = 0
CLASSIFICATION_TYPE = U
NORAD_CAT_ID   = 67848
ELEMENT_SET_NO = 999
REV_AT_EPOCH   = 300
BSTAR          = -.10784E-3
MEAN_MOTION_DOT = -.23201E-3
MEAN_MOTION_DDOT = 0

CCSDS_OMM_VERS = 2.0
CREATION_DATE  = 
ORIGINATOR     = 

OBJECT_NAME    = STARLINK-36602
OBJECT_ID      = 2026-033AE
CENTER_NAME    = EARTH
REF_FRAME      = TEME
TIME_SYSTEM    = UTC
MEAN_ELEMENT_THEORY = SGP/SGP4

EPOCH          = 2026-02-27T08:00:01.999008
MEAN_MOTION    = 15.81998311
ECCENTRICITY   = .0001846
INCLINATION    = 42.9988
RA_OF_ASC_NODE = 334.7147
ARG_OF_PERICENTER = 263.1669
MEAN_ANOMALY   = 167.4252

EPHEMERIS_TYPE = 0
CLASSIFICATION_TYPE = U
NORAD_CAT_ID   = 67849
ELEMENT_SET_NO = 999
REV_AT_EPOCH   = 300
BSTAR          = .19996E-3
MEAN_MOTION_DOT = .41741E-3
MEAN_MOTION_DDOT = 0

CCSDS_OMM_VERS = 2.0
CREATION_DATE  = 
ORIGINATOR     = 

OBJECT_NAME    = STARLINK-36840
OBJECT_ID      = 2026-034A
CENTER_NAME    = EARTH
REF_FRAME      = TEME
TIME_SYSTEM    = UTC
MEAN_ELEMENT_THEORY = SGP/SGP4

EPOCH          = 2026-02-27T16:00:03.999744
MEAN_MOTION    = 15.86225555
ECCENTRICITY   = .0000758
INCLINATION    = 53.1516
RA_OF_ASC_NODE = 261.6215
ARG_OF_PERICENTER = 94.8341
MEAN_ANOMALY   = 176.3354

EPHEMERIS_TYPE = 0
CLASSIFICATION_TYPE = U
NORAD_CAT_ID   = 67850
ELEMENT_SET_NO = 999
REV_AT_EPOCH   = 230
BSTAR          = -.72153E-2
MEAN_MOTION_DOT = -.1608418E-1
MEAN_MOTION_DDOT = 0

CCSDS_OMM_VERS = 2.0
CREATION_DATE  = 
ORIGINATOR     = 

OBJECT_NAME    = STARLINK-36348
OBJECT_ID      = 2026-034B
CENTER_NAME    = EARTH
REF_FRAME      = TEME
TIME_SYSTEM    = UTC
MEAN_ELEMENT_THEORY = SGP/SGP4

EPOCH          = 2026-02-27T16:00:03.999744
MEAN_MOTION    = 15.86431524
ECCENTRICITY   = .0000784
INCLINATION    = 53.1514
RA_OF_ASC_NODE = 261.6151
ARG_OF_PERICENTER = 83.0422
MEAN_ANOMALY   = 191.1627

EPHEMERIS_TYPE = 0
CLASSIFICATION_TYPE = U
NORAD_CAT_ID   = 67851
ELEMENT_SET_NO = 999
REV_AT_EPOCH   = 225
BSTAR          = -.71248E-2
MEAN_MOTION_DOT = -.1605018E-1
MEAN_MOTION_DDOT = 0

