STARLINK-36651          
1 67840U 26033V   26058.33335647  .00038475  00000+0  18461-3 0  9993
2 67840  42.9988 334.8012 0001607 273.7768 122.6339 15.81995885  3000
STARLINK-36656          
1 67841U 26033W   26058.33335647  .00089169  00000+0  42251-3 0  9994
2 67841  42.9990 334.7899 0001614 287.9165 112.7739 15.81972125  3008
STARLINK-36653          
1 67842U 26033X   26058.33335647  .00029177  00000+0  14065-3 0  9990
2 67842  42.9987 334.7799 0001672 279.3800 125.5646 15.82011446  3009
STARLINK-36589          
1 67843U 26033Y   26058.33335647  .00061716  00000+0  29383-3 0  9995
2 67843  42.9991 334.7690 0002052 282.5439 126.6790 15.81993657  3006
STARLINK-36598          
1 67844U 26033Z   26058.33335647  .00009297  00000+0  46627-4 0  9993
2 67844  42.9990 334.7583 0001817 282.0694 131.4188 15.82018972  3007
STARLINK-36606          
1 67845U 26033AA  26058.33335647  .00052210  00000+0  24918-3 0  9995
2 67845  42.9988 334.7472 0001594 283.2218 134.5401 15.81999337  3003
STARLINK-36658          
1 67846U 26033AB  26058.33335647  .00024557  00000+0  11883-3 0  9996
2 67846  42.9989 334.7368 0001882 278.2596 143.7760 15.82013296  3004
STARLINK-36618          
1 67847U 26033AC  26058.33335647 -.00388356  62913-4 -61417-3 0  9993
2 67847  42.9893 333.8410 0002365 267.4513 146.0435 16.02773038  3008
STARLINK-36660          
1 67848U 26033AD  26058.33335647 -.00023201  00000+0 -10784-3 0  9994
2 67848  42.9988 334.7258 0001597 290.8142 135.4872 15.82035938  3002
STARLINK-36602          
1 67849U 26033AE  26058.33335647  .00041741  00000+0  19996-3 0  9996
2 67849  42.9988 334.7147 0001846 263.1669 167.4252 15.81998311  3003
STARLINK-36840          
1 67850U 26034A   26058.66671296 -.01608418  00000+0 -72153-2 0  9994
2 67850  53.1516 261.6215 0000758  94.8341 176.3354 15.86225555  2309
STARLINK-36348          
1 67851U 26034B   26058.66671296 -.01605018  00000+0 -71248-2 0  9992
2 67851  53.1514 261.6151 0000784  83.0422 191.1627 15.86431524  2253
